[Satellite]
VERSION=1.1
NAME=ORBVIEW 3
NICKNAME=ORBVIEW 3
TLE1=1 27838U 03030A   11060.13954383  .00056994  00000-0  26675-3 0  3680
TLE2=2 27838  96.9722 108.3446 0016060 145.5272 297.6906 15.82894711431452
